[{"OBJECT_NAME":"NANOSATC-BR1","OBJECT_ID":"2014-033Q","EPOCH":"2026-03-09T23:35:03.168384","MEAN_MOTION":15.28136801,"ECCENTRICITY":0.00046435,"INCLINATION":98.0845,"RA_OF_ASC_NODE":92.7804,"ARG_OF_PERICENTER":147.6715,"MEAN_ANOMALY":212.4808,"EPHEMERIS_TYPE":0,"CLASSIFICATION_TYPE":"U","NORAD_CAT_ID":40024,"ELEMENT_SET_NO":999,"REV_AT_EPOCH":63881,"BSTAR":0.00074295057,"MEAN_MOTION_DOT":0.00020336,"MEAN_MOTION_DDOT":0},{"OBJECT_NAME":"STARLINK-32462","OBJECT_ID":"2024-222R","EPOCH":"2026-03-09T12:49:10.471008","MEAN_MOTION":15.27574971,"ECCENTRICITY":0.00021136,"INCLINATION":43.0035,"RA_OF_ASC_NODE":133.7368,"ARG_OF_PERICENTER":270.19,"MEAN_ANOMALY":89.871,"EPHEMERIS_TYPE":0,"CLASSIFICATION_TYPE":"U","NORAD_CAT_ID":62129,"ELEMENT_SET_NO":999,"REV_AT_EPOCH":7276,"BSTAR":0.00074955938,"MEAN_MOTION_DOT":0.00020418,"MEAN_MOTION_DDOT":0}]
